{"type": "node", "id": 129996885, "lat": 48.5204976, "lon": 9.0553187, "tags": {"addr:city": "T\u00fcbingen", "addr:country": "DE", "addr:housenumber": "19", "addr:postcode": "72070", "addr:street": "Kirchgasse", "amenity": "bar", "cocktails": "yes", "contact:phone": "+49 7071 9898919", "contact:website": "http://www.bartista.de/", "name": "Bartista", "old_name": "Caf\u00e9 Nass", "opening_hours": "Mo-Th 18:00-01:00; Fr 18:00-03:00; Sa 18:00-01:00; Su 20:00-01:00", "operator": "Gaetano Randone", "wheelchair": "no"}, "geohash": "u0wkn0cukhr4"}
{"type": "node", "id": 289739544, "lat": 48.5214675, "lon": 9.0562562, "tags": {"addr:city": "T\u00fcbingen", "addr:country": "DE", "addr:housenumber": "9", "addr:postcode": "72070", "addr:street": "Neue Stra\u00dfe", "amenity": "bar", "cocktails": "yes", "cuisine": "italian", "name": "Zur Stadtpost", "opening_hours": "Mo-Tu 18:00-00:00;We-Th 18:00-03:00;Fr-Sa 18:00-05:00", "phone": "+49 7071 6391775", "toilets:wheelchair": "no", "wheelchair": "limited", "wikimedia_commons": "File:Stadtpost-1.jpg"}, "geohash": "u0wkn14d4145"}
{"type": "node", "id": 305163751, "lat": 48.5265198, "lon": 9.0624306, "tags": {"addr:city": "T\u00fcbingen", "addr:housenumber": "44", "addr:postcode": "72074", "addr:street": "Wilhelmstra\u00dfe", "amenity": "bar", "brewery": "guinness;Kilkenny;Strongbow_Dry_Cider;Bulmers_Original_Cider;F\u00fcrstenberg_Export;F\u00fcrstenberg_Pils;Paulaner_Hefe-Wei\u00dfbier,_hell;Hacker_Pschorr_Kellerbier", "contact:phone": "+49 7071 256408", "internet_access": "wlan", "name": "Saints & Scholars", "opening_hours": "Mo-Sa 10:00-01:00; Su,PH 10:00-24:00", "operator": "Peter Wolf", "outdoor_seating": "yes", "reg_name": "Irish Pub", "smoking": "isolated", "toilets:wheelchair": "yes", "website": "http://www.saints-and-scholars.de/", "wheelchair": "limited"}, "geohash": "u0wkn1zp3yyn"}
{"type": "node", "id": 371082352, "lat": 48.5202779, "lon": 9.055104, "tags": {"addr:city": "T\u00fcbingen", "addr:country": "DE", "addr:housenumber": "6", "addr:postcode": "72070", "addr:street": "Kirchgasse", "amenity": "bar", "cocktails": "yes", "contact:phone": "+49 7071 25 62 86", "contact:website": "https://www.asmara-bar.de", "name": "Asmara", "opening_hours": "Mo-Th 18:00-03:00, Fr,Sa 18:00-05:00; Su off", "outdoor_seating": "no", "smoking": "yes", "wheelchair": "no"}, "geohash": "u0wkn0cep5qg"}
{"type": "node", "id": 469780588, "lat": 48.5228997, "lon": 9.0539451, "tags": {"addr:city": "T\u00fcbingen", "addr:housenumber": "33", "addr:postcode": "72070", "addr:street": "Hintere Grabenstra\u00dfe", "amenity": "bar", "name": "Arsenal", "opening_hours": "Mo-Th 18:00-01:00; Fr 18:00-02:00; Sa 16:00-02:00; Su 16:00-01:00", "operator": "Kino Arsenal Stefan Paul KG", "outdoor_seating": "yes", "phone": "+49 7071 252154", "smoking": "yes", "website": "http://www.arsenalkinos.de", "wheelchair": "no"}, "geohash": "u0wkn12fkhng"}
{"type": "node", "id": 847010648, "lat": 48.521092, "lon": 9.0577631, "tags": {"addr:city": "T\u00fcbingen", "addr:country": "DE", "addr:housenumber": "18", "addr:postcode": "72074", "addr:street": "M\u00fchlstra\u00dfe", "amenity": "bar", "contact:facebook": "https://www.facebook.com/Last-Resort-158790172857/info?tab=page_info", "contact:phone": "+49 7071 5651087", "name": "Last Resort", "opening_hours": "Mo-Th 18:00-03:00, Fr,Sa 18:00-04:00, Su 18:00-01:00", "wheelchair": "no", "wikimedia_commons": "File:Last-Resort-Eingang.jpg"}, "geohash": "u0wkn0gxv5je"}
{"type": "node", "id": 1759081434, "lat": 48.5226831, "lon": 9.0587031, "tags": {"addr:city": "T\u00fcbingen", "addr:housenumber": "16", "addr:postcode": "72074", "addr:street": "Wilhelmstra\u00dfe", "amenity": "bar", "loc_name": "Shooters", "name": "ShooterStars", "opening_hours": "Mo 19:00-24:00; Tu-Fr 00:00-02:00, 19:00-24:00; Sa 00:00-03:00, 19:00-24:00, Su 00:00-03:00", "website": "https://www.shooterstars.de/", "wheelchair": "no", "wikimedia_commons": "File:Shooter in der Wilhelmstra\u00dfe in T\u00fcbingen.jpg"}, "geohash": "u0wkn1k355dx"}
{"type": "node", "id": 3848042715, "lat": 48.5224968, "lon": 9.0491112, "tags": {"addr:city": "T\u00fcbingen", "addr:country": "DE", "addr:housenumber": "8", "addr:postcode": "72070", "addr:street": "Weberstra\u00dfe", "amenity": "bar", "check_date:opening_hours": "2021-05-11", "contact:website": "http://www.achtbar-tuebingen.de/", "name": "achtbar", "note": "women-only space", "opening_hours": "Th 18:00-22:00; Fr 20:00-24:00; Sa 20:00-24:00", "operator": "Frauencaf\u00e9 achtbar T\u00fcbingen e.V.", "toilets:wheelchair": "yes", "wheelchair": "yes"}, "geohash": "u0wkjcm258fr"}
{"type": "node", "id": 5926539895, "lat": 48.5210521, "lon": 9.0511378, "tags": {"addr:city": "T\u00fcbingen", "addr:housenumber": "12", "addr:postcode": "72070", "addr:street": "Ammergasse", "amenity": "bar", "cocktails": "yes", "name": "Schmitz Katze", "opening_hours": "Mo-Sa 17:00-02:00;Su off", "phone": "+49 7071 8594896", "wheelchair": "yes", "wikimedia_commons": "File:Schmitz-Katze-Tuebingen.jpg"}, "geohash": "u0wkjbyzdg9t"}
{"type": "node", "id": 6939847283, "lat": 48.5184461, "lon": 9.0588338, "tags": {"addr:city": "T\u00fcbingen", "addr:housenumber": "5", "addr:postcode": "72072", "addr:street": "W\u00f6hrdstra\u00dfe", "amenity": "bar", "name": "Blue Bay", "opening_hours": "Su,Mo-Th 09:00-24:00, Fr,Sa 09:00-01:00", "phone": "+49 7071 32180", "wheelchair": "yes"}, "geohash": "u0wkn0s2qjuh"}
{"type": "node", "id": 7028258867, "lat": 48.5293449, "lon": 9.06488, "tags": {"addr:city": "T\u00fcbingen", "addr:housenumber": "66", "addr:postcode": "72074", "addr:street": "Wilhelmstra\u00dfe", "amenity": "bar", "min_age": "18", "name": "Esperanto - Shisha- Lounge & Bar", "opening_hours": "Mo-Th 17:00 - 01:00; Fr 17:00 - 03:00; Sa 17:00 - 03:00; Su 17:00 - 01:00", "operator": "Konstantin Chalkidis", "phone": "+49 7071 6395999", "website": "http://esperanto6.webnode.com/"}, "geohash": "u0wkn62zgj86"}
{"type": "node", "id": 7663246984, "lat": 48.5292467, "lon": 9.0613295, "tags": {"addr:city": "T\u00fcbingen", "addr:housenumber": "26", "addr:postcode": "72074", "addr:street": "Mohlstra\u00dfe", "amenity": "bar", "name": "Skybar", "phone": "+49 7071 9209178"}, "geohash": "u0wkn4qr272b"}
